PROGRESS-MS 34          
1 68837U 26093A   26201.08882182  .00004577  00000+0  91000-4 0  9996
2 68837  51.6315 137.2714 0006813 316.7062  43.3390 15.49056873576360
TIANZHOU-10             
1 69049U 26102A   26201.15025581  .00011348  00000+0  15004-3 0  9996
2 69049  41.4683 121.7978 0001915 306.7446  53.3216 15.58213113297959
SHENZHOU-23 (SZ-23)     
1 69180U 26113A   26201.15025581  .00011348  00000+0  15004-3 0  9994
2 69180  41.4683 121.7978 0001915 306.7446  53.3216 15.58213113297797
